GLOBALSTAR M057 [-]     
1 25943U 99058A   23312.92326825 -.00000058  00000+0  31577-3 0  9991
2 25943  51.9978 211.9372 0001591 246.1532 113.9150 12.24778211 95096
GLOBALSTAR M059 [-]     
1 25944U 99058B   23312.92409378 -.00000048  00000+0  46866-3 0  9993
2 25944  52.0044 353.1682 0000227 217.9797 199.9755 11.99954264503667
GLOBALSTAR M056 [-]     
1 25945U 99058C   23312.88544150 -.00000109  00000+0 -25428-3 0  9997
2 25945  51.9994  10.2950 0001294 110.1161  61.0766 12.04771024 91956
GLOBALSTAR M031 [-]     
1 25946U 99058D   23312.70917126 -.00000002  00000+0  89678-3 0  9994
2 25946  51.9974 298.1865 0001957  63.2606 107.6922 12.15999015 93198
GLOBALSTAR M039 [-]     
1 25961U 99062A   23312.90275110 -.00000077  00000+0  14670-3 0  9990
2 25961  51.9848 254.3410 0003072 116.1290 243.9893 12.62273758106177
GLOBALSTAR M034 [-]     
1 25962U 99062B   23312.73005468 -.00000052  00000+0  45727-3 0  9999
2 25962  51.9854  95.7943 0014034  18.2837 354.9850 11.79417252 69194
GLOBALSTAR M029 [-]     
1 25963U 99062C   23312.33815653 -.00000066  00000+0  24891-3 0  9995
2 25963  51.9803 243.2898 0003394  47.3827 133.9527 11.99870029 98675
GLOBALSTAR M061 [-]     
1 25964U 99062D   23312.28642736 -.00000071  00000+0  15077-3 0  9992
2 25964  51.9794 273.2103 0005941 308.0866 203.8084 11.76752894 52081
